{"type": "FeatureCollection", "features": [ {"type": "Feature", "properties": {"norad_id": 44476, "name": "INTELSAT 39 (IS-39)", "group": "intelsat", "lat": 0.017116228461902395, "lon": 29.348653623713165, "alt_km": 35786.56826428027, "timestamp": "2025-12-22T15:43:48.652828+00:00", "meta": {"OBJECT_NAME": "INTELSAT 39 (IS-39)", "OBJECT_ID": "2019-049B", "EPOCH": "2025-12-21T20:34:53.577984", "MEAN_MOTION": 1.00273614, "ECCENTRICITY": 8.236e-05, "INCLINATION": 0.0088, "RA_OF_ASC_NODE": 313.2176, "ARG_OF_PERICENTER": 184.0744, "MEAN_ANOMALY": 324.0513, "EPHEMERIS_TYPE": 0, "CLASSIFICATION_TYPE": "U", "NORAD_CAT_ID": 44476, "ELEMENT_SET_NO": 999, "REV_AT_EPOCH": 2335, "BSTAR": 0, "MEAN_MOTION_DOT": 5.5e-07, "MEAN_MOTION_DDOT": 0}, "tle": {"line1": "1 44476U 19049B   25355.85756456  .00000055  00000+0  00000+0 0  9992", "line2": "2 44476   0.0088 313.2176 0000823 184.0744 324.0513  1.00273614 23352"}}, "geometry": {"type": "Point", "coordinates": [29.348653623713165, 0.017116228461902395]}}, {"type": "Feature", "properties": {"norad_id": 46114, "name": "GALAXY 30 (G-30)", "group": "intelsat", "lat": -0.010249188815618095, "lon": -157.61284671267904, "alt_km": 35782.875566202776, "timestamp": "2025-12-22T15:43:48.652839+00:00", "meta": {"OBJECT_NAME": "GALAXY 30 (G-30)", "OBJECT_ID": "2020-056C", "EPOCH": "2025-12-22T05:43:20.885088", "MEAN_MOTION": 1.00270047, "ECCENTRICITY": 0.00020003, "INCLINATION": 0.0177, "RA_OF_ASC_NODE": 10.447, "ARG_OF_PERICENTER": 256.2295, "MEAN_ANOMALY": 145.2144, "EPHEMERIS_TYPE": 0, "CLASSIFICATION_TYPE": "U", "NORAD_CAT_ID": 46114, "ELEMENT_SET_NO": 999, "REV_AT_EPOCH": 1951, "BSTAR": 0, "MEAN_MOTION_DOT": 5.9e-07, "MEAN_MOTION_DDOT": 0}, "tle": {"line1": "1 46114U 20056C   25356.23843617  .00000059  00000+0  00000+0 0  9996", "line2": "2 46114   0.0177  10.4470 0002000 256.2295 145.2144  1.00270047 19510"}}, "geometry": {"type": "Point", "coordinates": [-157.61284671267904, -0.010249188815618095]}}, {"type": "Feature", "properties": {"norad_id": 54026, "name": "GALAXY 33 (G-33)", "group": "intelsat", "lat": -0.020369882792222956, "lon": -165.61125089490577, "alt_km": 35783.757078549264, "timestamp": "2025-12-22T15:43:48.652851+00:00", "meta": {"OBJECT_NAME": "GALAXY 33 (G-33)", "OBJECT_ID": "2022-128A", "EPOCH": "2025-12-22T06:22:38.830080", "MEAN_MOTION": 1.00271718, "ECCENTRICITY": 0.00015709, "INCLINATION": 0.0189, "RA_OF_ASC_NODE": 304.338, "ARG_OF_PERICENTER": 319.6169, "MEAN_ANOMALY": 149.783, "EPHEMERIS_TYPE": 0, "CLASSIFICATION_TYPE": "U", "NORAD_CAT_ID": 54026, "ELEMENT_SET_NO": 999, "REV_AT_EPOCH": 1196, "BSTAR": 0, "MEAN_MOTION_DOT": 1.01e-06, "MEAN_MOTION_DDOT": 0}, "tle": {"line1": "1 54026U 22128A   25356.26572720  .00000101  00000+0  00000+0 0  9994", "line2": "2 54026   0.0189 304.3380 0001570 319.6169 149.7830  1.00271718 11962"}}, "geometry": {"type": "Point", "coordinates": [-165.61125089490577, -0.020369882792222956]}}, {"type": "Feature", "properties": {"norad_id": 54027, "name": "GALAXY 34 (G-34)", "group": "intelsat", "lat": -0.02309518198385237, "lon": -161.57157387672174, "alt_km": 35783.634478559805, "timestamp": "2025-12-22T15:43:48.652862+00:00", "meta": {"OBJECT_NAME": "GALAXY 34 (G-34)", "OBJECT_ID": "2022-128B", "EPOCH": "2025-12-22T06:22:38.830080", "MEAN_MOTION": 1.00268869, "ECCENTRICITY": 0.0001866, "INCLINATION": 0.0237, "RA_OF_ASC_NODE": 338.9031, "ARG_OF_PERICENTER": 285.2574, "MEAN_ANOMALY": 153.6238, "EPHEMERIS_TYPE": 0, "CLASSIFICATION_TYPE": "U", "NORAD_CAT_ID": 54027, "ELEMENT_SET_NO": 999, "REV_AT_EPOCH": 1213, "BSTAR": 0, "MEAN_MOTION_DOT": 0, "MEAN_MOTION_DDOT": 0}, "tle": {"line1": "1 54027U 22128B   25356.26572720  .00000000  00000+0  00000+0 0  9993", "line2": "2 54027   0.0237 338.9031 0001866 285.2574 153.6238  1.00268869 12138"}}, "geometry": {"type": "Point", "coordinates": [-161.57157387672174, -0.02309518198385237]}}, {"type": "Feature", "properties": {"norad_id": 54243, "name": "GALAXY 31 (G-31)", "group": "intelsat", "lat": -0.01628001173001168, "lon": -153.61673388926877, "alt_km": 35784.78153189149, "timestamp": "2025-12-22T15:43:48.652874+00:00", "meta": {"OBJECT_NAME": "GALAXY 31 (G-31)", "OBJECT_ID": "2022-153A", "EPOCH": "2025-12-22T05:14:20.597280", "MEAN_MOTION": 1.00271097, "ECCENTRICITY": 0.00014152, "INCLINATION": 0.0307, "RA_OF_ASC_NODE": 249.2278, "ARG_OF_PERICENTER": 33.0199, "MEAN_ANOMALY": 126.3618, "EPHEMERIS_TYPE": 0, "CLASSIFICATION_TYPE": "U", "NORAD_CAT_ID": 54243, "ELEMENT_SET_NO": 999, "REV_AT_EPOCH": 535, "BSTAR": 0, "MEAN_MOTION_DOT": 3.5e-07, "MEAN_MOTION_DDOT": 0}, "tle": {"line1": "1 54243U 22153A   25356.21829395  .00000035  00000+0  00000+0 0  9997", "line2": "2 54243   0.0307 249.2278 0001415  33.0199 126.3618  1.00271097  5357"}}, "geometry": {"type": "Point", "coordinates": [-153.61673388926877, -0.01628001173001168]}}, {"type": "Feature", "properties": {"norad_id": 54244, "name": "GALAXY 32 (G-32)", "group": "intelsat", "lat": -0.03012913112986217, "lon": -123.62426514369096, "alt_km": 35785.57418525387, "timestamp": "2025-12-22T15:43:48.652885+00:00", "meta": {"OBJECT_NAME": "GALAXY 32 (G-32)", "OBJECT_ID": "2022-153B", "EPOCH": "2025-12-22T02:27:39.626208", "MEAN_MOTION": 1.00270271, "ECCENTRICITY": 0.00019789, "INCLINATION": 0.0106, "RA_OF_ASC_NODE": 352.1595, "ARG_OF_PERICENTER": 327.8502, "MEAN_ANOMALY": 76.8163, "EPHEMERIS_TYPE": 0, "CLASSIFICATION_TYPE": "U", "NORAD_CAT_ID": 54244, "ELEMENT_SET_NO": 999, "REV_AT_EPOCH": 1136, "BSTAR": 0, "MEAN_MOTION_DOT": -1.52e-06, "MEAN_MOTION_DDOT": 0}, "tle": {"line1": "1 54244U 22153B   25356.10254197 -.00000152  00000+0  00000+0 0  9999", "line2": "2 54244   0.0106 352.1595 0001978 327.8502  76.8163  1.00270271 11362"}}, "geometry": {"type": "Point", "coordinates": [-123.62426514369096, -0.03012913112986217]}}, {"type": "Feature", "properties": {"norad_id": 54741, "name": "GALAXY 35 (G-35)", "group": "intelsat", "lat": -0.0045909553582343925, "lon": -125.70475429755658, "alt_km": 35778.95886128432, "timestamp": "2025-12-22T15:43:48.652897+00:00", "meta": {"OBJECT_NAME": "GALAXY 35 (G-35)", "OBJECT_ID": "2022-170A", "EPOCH": "2025-12-22T06:05:19.580640", "MEAN_MOTION": 1.00271799, "ECCENTRICITY": 0.00021835, "INCLINATION": 0.0191, "RA_OF_ASC_NODE": 81.1113, "ARG_OF_PERICENTER": 192.6844, "MEAN_ANOMALY": 175.5056, "EPHEMERIS_TYPE": 0, "CLASSIFICATION_TYPE": "U", "NORAD_CAT_ID": 54741, "ELEMENT_SET_NO": 999, "REV_AT_EPOCH": 1112, "BSTAR": 0, "MEAN_MOTION_DOT": -1.41e-06, "MEAN_MOTION_DDOT": 0}, "tle": {"line1": "1 54741U 22170A   25356.25369885 -.00000141  00000+0  00000+0 0  9995", "line2": "2 54741   0.0191  81.1113 0002183 192.6844 175.5056  1.00271799 11127"}}, "geometry": {"type": "Point", "coordinates": [-125.70475429755658, -0.0045909553582343925]}}, {"type": "Feature", "properties": {"norad_id": 54742, "name": "GALAXY 36 (G-36)", "group": "intelsat", "lat": -0.018790231897554393, "lon": -121.61104501210687, "alt_km": 35787.490951223816, "timestamp": "2025-12-22T15:43:48.652908+00:00", "meta": {"OBJECT_NAME": "GALAXY 36 (G-36)", "OBJECT_ID": "2022-170B", "EPOCH": "2025-12-22T06:07:15.906144", "MEAN_MOTION": 1.00268751, "ECCENTRICITY": 4.422e-05, "INCLINATION": 0.0153, "RA_OF_ASC_NODE": 42.4265, "ARG_OF_PERICENTER": 302.7465, "MEAN_ANOMALY": 108.7013, "EPHEMERIS_TYPE": 0, "CLASSIFICATION_TYPE": "U", "NORAD_CAT_ID": 54742, "ELEMENT_SET_NO": 999, "REV_AT_EPOCH": 1100, "BSTAR": 0, "MEAN_MOTION_DOT": 0, "MEAN_MOTION_DDOT": 0}, "tle": {"line1": "1 54742U 22170B   25356.25504521  .00000000  00000+0  00000+0 0  9997", "line2": "2 54742   0.0153  42.4265 0000442 302.7465 108.7013  1.00268751 11005"}}, "geometry": {"type": "Point", "coordinates": [-121.61104501210687, -0.018790231897554393]}}, {"type": "Feature", "properties": {"norad_id": 57493, "name": "GALAXY 37 (G-37)", "group": "intelsat", "lat": 0.0001712259217244555, "lon": -159.62744049729636, "alt_km": 35784.028213042526, "timestamp": "2025-12-22T15:43:48.652920+00:00", "meta": {"OBJECT_NAME": "GALAXY 37 (G-37)", "OBJECT_ID": "2023-112A", "EPOCH": "2025-12-22T06:22:38.830080", "MEAN_MOTION": 1.00271254, "ECCENTRICITY": 0.00019569, "INCLINATION": 0.0079, "RA_OF_ASC_NODE": 32.7718, "ARG_OF_PERICENTER": 242.4103, "MEAN_ANOMALY": 144.545, "EPHEMERIS_TYPE": 0, "CLASSIFICATION_TYPE": "U", "NORAD_CAT_ID": 57493, "ELEMENT_SET_NO": 999, "REV_AT_EPOCH": 876, "BSTAR": 0, "MEAN_MOTION_DOT": 7e-07, "MEAN_MOTION_DDOT": 0}, "tle": {"line1": "1 57493U 23112A   25356.26572720  .00000070  00000+0  00000+0 0  9994", "line2": "2 57493   0.0079  32.7718 0001956 242.4103 144.5450  1.00271254  8767"}}, "geometry": {"type": "Point", "coordinates": [-159.62744049729636, 0.0001712259217244555]}}]}